[{"OBJECT_NAME":"STARLINK-32007","OBJECT_ID":"2024-117D","EPOCH":"2026-03-09T05:24:47.361888","MEAN_MOTION":15.30183739,"ECCENTRICITY":0.00011037,"INCLINATION":53.1622,"RA_OF_ASC_NODE":39.4082,"ARG_OF_PERICENTER":96.1423,"MEAN_ANOMALY":263.9703,"EPHEMERIS_TYPE":0,"CLASSIFICATION_TYPE":"U","NORAD_CAT_ID":60094,"ELEMENT_SET_NO":999,"REV_AT_EPOCH":9681,"BSTAR":1.2225872e-5,"MEAN_MOTION_DOT":3.0e-8,"MEAN_MOTION_DDOT":0},{"OBJECT_NAME":"SCS-01 D","OBJECT_ID":"2025-100D","EPOCH":"2026-03-09T18:08:45.040704","MEAN_MOTION":15.31902149,"ECCENTRICITY":0.00063457,"INCLINATION":97.373,"RA_OF_ASC_NODE":145.4097,"ARG_OF_PERICENTER":266.2302,"MEAN_ANOMALY":93.8214,"EPHEMERIS_TYPE":0,"CLASSIFICATION_TYPE":"U","NORAD_CAT_ID":63985,"ELEMENT_SET_NO":999,"REV_AT_EPOCH":4562,"BSTAR":0.0010528181,"MEAN_MOTION_DOT":0.00032471,"MEAN_MOTION_DDOT":0}]
