STARLINK-32007          
1 60094U 24117D   26068.22554817  .00000003  00000+0  12226-4 0  9999
2 60094  53.1622  39.4082 0001103  96.1423 263.9703 15.30183739 96810
SCS-01 D                
1 63985U 25100D   26068.75607686  .00032471  00000+0  10528-2 0  9990
2 63985  97.3730 145.4097 0006346 266.2302  93.8214 15.31902149 45621
